start=new Date('2022-09-28T00:00:00.000Z').valueOf();
sats=[{"FILE":"3585092","REV_AT_EPOCH":"4643","SEMIMAJOR_AXIS":"6917.882","APOAPSIS":"540.957","RCS_SIZE":"LARGE","INCLINATION":"53.2167","CLASSIFICATION_TYPE":"U","LAUNCH_DATE":"2021-12-18","ARG_OF_PERICENTER":"47.1830","TIME_SYSTEM":"UTC","OBJECT_TYPE":"PAYLOAD","OBJECT_NAME":"STARLINK-3305","EPHEMERIS_TYPE":"0","OBJECT_ID":"2021-125L","MEAN_ELEMENT_THEORY":"SGP4","DECAY_DATE":null,"ELEMENT_SET_NO":"999","MEAN_ANOMALY":"312.9309","CENTER_NAME":"EARTH","REF_FRAME":"TEME","PERIOD":"95.438","MEAN_MOTION_DOT":"0.00000539","BSTAR":"0.00005194200000","COUNTRY_CODE":"US","MEAN_MOTION":"15.08839439","NORAD_CAT_ID":"50166","GP_ID":"213638075","EPOCH":"2022-09-27T02:13:16.335552","SITE":"AFWTR","TLE_LINE2":"2 50166  53.2167 143.6694 0001749  47.1830 312.9309 15.08839439 46435","TLE_LINE1":"1 50166U 21125L   22270.09255018  .00000539  00000-0  51942-4 0  9994","RA_OF_ASC_NODE":"143.6694","ECCENTRICITY":"0.00017490","MEAN_MOTION_DDOT":"0.0000000000000","PERIAPSIS":"538.537"},{"OBJECT_NAME":"STARLINK-3271","ARG_OF_PERICENTER":"67.9546","OBJECT_TYPE":"PAYLOAD","TIME_SYSTEM":"UTC","EPHEMERIS_TYPE":"0","OBJECT_ID":"2021-125M","DECAY_DATE":null,"MEAN_ELEMENT_THEORY":"SGP4","FILE":"3585280","RCS_SIZE":"LARGE","INCLINATION":"53.2184","REV_AT_EPOCH":"4642","SEMIMAJOR_AXIS":"6917.882","APOAPSIS":"540.970","CLASSIFICATION_TYPE":"U","LAUNCH_DATE":"2021-12-18","NORAD_CAT_ID":"50167","EPOCH":"2022-09-27T22:09:34.132608","GP_ID":"213667471","SITE":"AFWTR","TLE_LINE1":"1 50167U 21125M   22270.92331172  .00001195  00000-0  93189-4 0  9991","TLE_LINE2":"2 50167  53.2184 149.9560 0001768  67.9546 292.1634 15.08839470 46425","PERIAPSIS":"538.524","MEAN_MOTION_DDOT":"0.0000000000000","RA_OF_ASC_NODE":"149.9560","ECCENTRICITY":"0.00017680","CENTER_NAME":"EARTH","MEAN_ANOMALY":"292.1634","REF_FRAME":"TEME","ELEMENT_SET_NO":"999","PERIOD":"95.438","BSTAR":"0.00009318900000","MEAN_MOTION_DOT":"0.00001195","COUNTRY_CODE":"US","MEAN_MOTION":"15.08839470"},{"PERIOD":"95.438","BSTAR":"0.00011355000000","MEAN_MOTION_DOT":"0.00001519","CENTER_NAME":"EARTH","MEAN_ANOMALY":"292.7859","REF_FRAME":"TEME","ELEMENT_SET_NO":"999","MEAN_MOTION":"15.08837422","COUNTRY_CODE":"US","EPOCH":"2022-09-27T14:51:03.532896","GP_ID":"213667723","SITE":"AFWTR","NORAD_CAT_ID":"50168","PERIAPSIS":"538.684","MEAN_MOTION_DDOT":"0.0000000000000","RA_OF_ASC_NODE":"141.3076","ECCENTRICITY":"0.00015450","TLE_LINE1":"1 50168U 21125N   22270.61879089  .00001519  00000-0  11355-3 0  9996","TLE_LINE2":"2 50168  53.2169 141.3076 0001545  67.3296 292.7859 15.08837422 46527","RCS_SIZE":"LARGE","INCLINATION":"53.2169","REV_AT_EPOCH":"4652","SEMIMAJOR_AXIS":"6917.888","APOAPSIS":"540.822","FILE":"3585280","LAUNCH_DATE":"2021-12-18","CLASSIFICATION_TYPE":"U","OBJECT_ID":"2021-125N","EPHEMERIS_TYPE":"0","OBJECT_NAME":"STARLINK-3296","ARG_OF_PERICENTER":"67.3296","TIME_SYSTEM":"UTC","OBJECT_TYPE":"PAYLOAD","DECAY_DATE":null,"MEAN_ELEMENT_THEORY":"SGP4"},{"DECAY_DATE":null,"MEAN_ELEMENT_THEORY":"SGP4","ARG_OF_PERICENTER":"55.5039","OBJECT_TYPE":"PAYLOAD","TIME_SYSTEM":"UTC","OBJECT_NAME":"STARLINK-3301","EPHEMERIS_TYPE":"0","OBJECT_ID":"2021-125P","CLASSIFICATION_TYPE":"U","LAUNCH_DATE":"2021-12-18","FILE":"3584772","REV_AT_EPOCH":"4333","APOAPSIS":"540.959","SEMIMAJOR_AXIS":"6917.904","INCLINATION":"53.2170","RCS_SIZE":"LARGE","TLE_LINE2":"2 50169  53.2170 144.4218 0001721  55.5039 304.6115 15.08832319 43336","TLE_LINE1":"1 50169U 21125P   22269.92695781 -.00001468  00000-0 -74156-4 0  9998","ECCENTRICITY":"0.00017210","RA_OF_ASC_NODE":"144.4218","PERIAPSIS":"538.578","MEAN_MOTION_DDOT":"0.0000000000000","NORAD_CAT_ID":"50169","EPOCH":"2022-09-26T22:14:49.154784","GP_ID":"213607864","SITE":"AFWTR","COUNTRY_CODE":"US","MEAN_MOTION":"15.08832319","ELEMENT_SET_NO":"999","MEAN_ANOMALY":"304.6115","CENTER_NAME":"EARTH","REF_FRAME":"TEME","PERIOD":"95.438","MEAN_MOTION_DOT":"-0.00001468","BSTAR":"-0.00007415600000"},{"COUNTRY_CODE":"US","MEAN_MOTION":"15.08838672","ELEMENT_SET_NO":"999","MEAN_ANOMALY":"314.6571","CENTER_NAME":"EARTH","REF_FRAME":"TEME","PERIOD":"95.438","BSTAR":"0.00002009300000","MEAN_MOTION_DOT":"0.00000032","TLE_LINE2":"2 50170  53.2173 140.4509 0001935  45.4579 314.6571 15.08838672 46545","TLE_LINE1":"1 50170U 21125Q   22270.81015322  .00000032  00000-0  20093-4 0  9992","RA_OF_ASC_NODE":"140.4509","ECCENTRICITY":"0.00019350","PERIAPSIS":"538.411","MEAN_MOTION_DDOT":"0.0000000000000","NORAD_CAT_ID":"50170","GP_ID":"213667221","EPOCH":"2022-09-27T19:26:37.238208","SITE":"AFWTR","CLASSIFICATION_TYPE":"U","LAUNCH_DATE":"2021-12-18","FILE":"3585280","REV_AT_EPOCH":"4654","APOAPSIS":"541.088","SEMIMAJOR_AXIS":"6917.884","INCLINATION":"53.2173","RCS_SIZE":"LARGE","MEAN_ELEMENT_THEORY":"SGP4","DECAY_DATE":null,"ARG_OF_PERICENTER":"45.4579","TIME_SYSTEM":"UTC","OBJECT_TYPE":"PAYLOAD","OBJECT_NAME":"STARLINK-3245","EPHEMERIS_TYPE":"0","OBJECT_ID":"2021-125Q"},{"DECAY_DATE":null,"MEAN_ELEMENT_THEORY":"SGP4","OBJECT_ID":"2021-125R","EPHEMERIS_TYPE":"0","TIME_SYSTEM":"UTC","OBJECT_TYPE":"PAYLOAD","ARG_OF_PERICENTER":"54.5021","OBJECT_NAME":"STARLINK-3286","LAUNCH_DATE":"2021-12-18","CLASSIFICATION_TYPE":"U","SEMIMAJOR_AXIS":"6917.908","APOAPSIS":"541.074","REV_AT_EPOCH":"4643","RCS_SIZE":"LARGE","INCLINATION":"53.2181","FILE":"3585092","RA_OF_ASC_NODE":"143.9586","ECCENTRICITY":"0.00018810","MEAN_MOTION_DDOT":"0.0000000000000","PERIAPSIS":"538.472","TLE_LINE2":"2 50171  53.2181 143.9586 0001881  54.5021 305.6146 15.08831030 46438","TLE_LINE1":"1 50171U 21125R   22270.03000684 -.00002400  00000-0 -13277-3 0  9990","SITE":"AFWTR","EPOCH":"2022-09-27T00:43:12.590976","GP_ID":"213638326","NORAD_CAT_ID":"50171","MEAN_MOTION":"15.08831030","COUNTRY_CODE":"US","BSTAR":"-0.00013277000000","MEAN_MOTION_DOT":"-0.00002400","PERIOD":"95.438","ELEMENT_SET_NO":"999","REF_FRAME":"TEME","CENTER_NAME":"EARTH","MEAN_ANOMALY":"305.6146"},{"BSTAR":"0.00008005500000","MEAN_MOTION_DOT":"0.00000986","PERIOD":"95.438","ELEMENT_SET_NO":"999","REF_FRAME":"TEME","MEAN_ANOMALY":"300.8198","CENTER_NAME":"EARTH","MEAN_MOTION":"15.08836582","COUNTRY_CODE":"US","SITE":"AFWTR","EPOCH":"2022-09-27T20:51:23.855040","GP_ID":"213668223","NORAD_CAT_ID":"50172","ECCENTRICITY":"0.00016380","RA_OF_ASC_NODE":"140.1988","PERIAPSIS":"538.623","MEAN_MOTION_DDOT":"0.0000000000000","TLE_LINE2":"2 50172  53.2158 140.1988 0001638  59.2956 300.8198 15.08836582 46595","TLE_LINE1":"1 50172U 21125S   22270.86902610  .00000986  00000-0  80055-4 0  9996","SEMIMAJOR_AXIS":"6917.891","APOAPSIS":"540.889","REV_AT_EPOCH":"4659","INCLINATION":"53.2158","RCS_SIZE":"LARGE","FILE":"3585280","LAUNCH_DATE":"2021-12-18","CLASSIFICATION_TYPE":"U","OBJECT_ID":"2021-125S","EPHEMERIS_TYPE":"0","TIME_SYSTEM":"UTC","OBJECT_TYPE":"PAYLOAD","ARG_OF_PERICENTER":"59.2956","OBJECT_NAME":"STARLINK-3287","DECAY_DATE":null,"MEAN_ELEMENT_THEORY":"SGP4"},{"MEAN_MOTION":"15.08840955","COUNTRY_CODE":"US","PERIOD":"95.437","MEAN_MOTION_DOT":"0.00000039","BSTAR":"0.00002052800000","ELEMENT_SET_NO":"999","MEAN_ANOMALY":"294.5801","CENTER_NAME":"EARTH","REF_FRAME":"TEME","ECCENTRICITY":"0.00009670","RA_OF_ASC_NODE":"130.0707","PERIAPSIS":"539.074","MEAN_MOTION_DDOT":"0.0000000000000","TLE_LINE2":"2 50173  53.2189 130.0707 0000967  65.5292 294.5801 15.08840955 43624","TLE_LINE1":"1 50173U 21125T   22270.89666880  .00000039  00000-0  20528-4 0  9994","GP_ID":"213644116","EPOCH":"2022-09-27T21:31:12.184320","SITE":"AFWTR","NORAD_CAT_ID":"50173","LAUNCH_DATE":"2021-12-18","CLASSIFICATION_TYPE":"U","REV_AT_EPOCH":"4362","SEMIMAJOR_AXIS":"6917.877","APOAPSIS":"540.411","RCS_SIZE":"LARGE","INCLINATION":"53.2189","FILE":"3585256","MEAN_ELEMENT_THEORY":"SGP4","DECAY_DATE":null,"EPHEMERIS_TYPE":"0","OBJECT_ID":"2021-125T","ARG_OF_PERICENTER":"65.5292","OBJECT_TYPE":"PAYLOAD","TIME_SYSTEM":"UTC","OBJECT_NAME":"STARLINK-3289"},{"SITE":"AFWTR","EPOCH":"2022-09-27T20:35:29.891904","GP_ID":"213666722","NORAD_CAT_ID":"50174","ECCENTRICITY":"0.00016790","RA_OF_ASC_NODE":"140.2511","MEAN_MOTION_DDOT":"0.0000000000000","PERIAPSIS":"538.564","TLE_LINE2":"2 50174  53.2169 140.2511 0001679  53.6639 306.4507 15.08846433 46607","TLE_LINE1":"1 50174U 21125U   22270.85798486  .00001252  00000-0  96719-4 0  9992","BSTAR":"0.00009671900000","MEAN_MOTION_DOT":"0.00001252","PERIOD":"95.437","ELEMENT_SET_NO":"999","REF_FRAME":"TEME","CENTER_NAME":"EARTH","MEAN_ANOMALY":"306.4507","MEAN_MOTION":"15.08846433","COUNTRY_CODE":"US","OBJECT_ID":"2021-125U","EPHEMERIS_TYPE":"0","TIME_SYSTEM":"UTC","OBJECT_TYPE":"PAYLOAD","ARG_OF_PERICENTER":"53.6639","OBJECT_NAME":"STARLINK-3292","MEAN_ELEMENT_THEORY":"SGP4","DECAY_DATE":null,"APOAPSIS":"540.887","SEMIMAJOR_AXIS":"6917.861","REV_AT_EPOCH":"4660","INCLINATION":"53.2169","RCS_SIZE":"LARGE","FILE":"3585280","LAUNCH_DATE":"2021-12-18","CLASSIFICATION_TYPE":"U"},{"TLE_LINE2":"2 50175  53.2171 144.3000 0001859  52.7661 307.3500 15.08838650 46429","TLE_LINE1":"1 50175U 21125V   22269.95271009 -.00000723  00000-0 -27311-4 0  9995","RA_OF_ASC_NODE":"144.3000","ECCENTRICITY":"0.00018590","PERIAPSIS":"538.463","MEAN_MOTION_DDOT":"0.0000000000000","NORAD_CAT_ID":"50175","SITE":"AFWTR","GP_ID":"213638826","EPOCH":"2022-09-26T22:51:54.151776","COUNTRY_CODE":"US","MEAN_MOTION":"15.08838650","ELEMENT_SET_NO":"999","REF_FRAME":"TEME","CENTER_NAME":"EARTH","MEAN_ANOMALY":"307.3500","BSTAR":"-0.00002731100000","MEAN_MOTION_DOT":"-0.00000723","PERIOD":"95.438","DECAY_DATE":null,"MEAN_ELEMENT_THEORY":"SGP4","TIME_SYSTEM":"UTC","OBJECT_TYPE":"PAYLOAD","ARG_OF_PERICENTER":"52.7661","OBJECT_NAME":"STARLINK-3291","EPHEMERIS_TYPE":"0","OBJECT_ID":"2021-125V","CLASSIFICATION_TYPE":"U","LAUNCH_DATE":"2021-12-18","FILE":"3585092","APOAPSIS":"541.036","SEMIMAJOR_AXIS":"6917.885","REV_AT_EPOCH":"4642","INCLINATION":"53.2171","RCS_SIZE":"LARGE"}];
